{
    "links": {
        "self": "http://www.neowsapp.com/rest/v1/neo/3335048?api_key=iIulBulltgU6a56xZRHN4H3l9WmuAYTsLGpBGhQ2"
    },
    "id": "3335048",
    "neo_reference_id": "3335048",
    "name": "(2006 KM89)",
    "designation": "2006 KM89",
    "nasa_jpl_url": "http://ssd.jpl.nasa.gov/sbdb.cgi?sstr=3335048",
    "absolute_magnitude_h": 23.6,
    "estimated_diameter": {
        "kilometers": {
            "estimated_diameter_min": 0.0506471459,
            "estimated_diameter_max": 0.1132504611
        },
        "meters": {
            "estimated_diameter_min": 50.6471458835,
            "estimated_diameter_max": 113.2504610618
        },
        "miles": {
            "estimated_diameter_min": 0.0314706677,
            "estimated_diameter_max": 0.0703705522
        },
        "feet": {
            "estimated_diameter_min": 166.1651821003,
            "estimated_diameter_max": 371.5566426699
        }
    },
    "is_potentially_hazardous_asteroid": false,
    "close_approach_data": [
        {
            "close_approach_date": "2006-06-15",
            "close_approach_date_full": "2006-Jun-15 20:17",
            "epoch_date_close_approach": 1150402620000,
            "relative_velocity": {
                "kilometers_per_second": "2.4186471362",
                "kilometers_per_hour": "8707.1296901822",
                "miles_per_hour": "5410.2717788802"
            },
            "miss_distance": {
                "astronomical": "0.1477906439",
                "lunar": "57.4905604771",
                "kilometers": "22109165.533368493",
                "miles": "13737998.4229834834"
            },
            "orbiting_body": "Earth"
        }
    ],
    "orbital_data": {
        "orbit_id": "11",
        "orbit_determination_date": "2017-04-06 09:08:32",
        "first_observation_date": "2006-05-29",
        "last_observation_date": "2006-06-20",
        "data_arc_in_days": 22,
        "observations_used": 31,
        "orbit_uncertainty": "8",
        "minimum_orbit_intersection": ".146376",
        "jupiter_tisserand_invariant": "4.319",
        "epoch_osculation": "2453891.5",
        "eccentricity": ".2753499496903253",
        "semi_major_axis": "1.598449261483705",
        "inclination": "3.049703033447192",
        "ascending_node_longitude": "118.4279982626059",
        "orbital_period": "738.1535450375504",
        "perihelion_distance": "1.158316337751629",
        "perihelion_argument": "143.5024101606541",
        "aphelion_distance": "2.038582185215781",
        "perihelion_time": "2453900.707676090827",
        "mean_anomaly": "355.5093849850317",
        "mean_motion": ".4877034086203387",
        "equinox": "J2000",
        "orbit_class": {
            "orbit_class_type": "AMO",
            "orbit_class_description": "Near-Earth asteroid orbits similar to that of 1221 Amor",
            "orbit_class_range": "1.017 AU < q (perihelion) < 1.3 AU"
        }
    },
    "is_sentry_object": false
}